[{"OBJECT_NAME":"STARLINK-5558","OBJECT_ID":"2023-021D","EPOCH":"2026-03-09T17:03:35.266176","MEAN_MOTION":14.98328248,"ECCENTRICITY":0.00032133,"INCLINATION":70.0002,"RA_OF_ASC_NODE":204.3096,"ARG_OF_PERICENTER":267.5398,"MEAN_ANOMALY":92.5393,"EPHEMERIS_TYPE":0,"CLASSIFICATION_TYPE":"U","NORAD_CAT_ID":55631,"ELEMENT_SET_NO":999,"REV_AT_EPOCH":16830,"BSTAR":0.00011941915,"MEAN_MOTION_DOT":1.332e-5,"MEAN_MOTION_DDOT":0},{"OBJECT_NAME":"HYPSO-2","OBJECT_ID":"2024-149BR","EPOCH":"2026-03-09T15:24:17.277696","MEAN_MOTION":14.98259029,"ECCENTRICITY":0.00013898,"INCLINATION":97.6894,"RA_OF_ASC_NODE":146.3679,"ARG_OF_PERICENTER":74.8032,"MEAN_ANOMALY":285.3344,"EPHEMERIS_TYPE":0,"CLASSIFICATION_TYPE":"U","NORAD_CAT_ID":60531,"ELEMENT_SET_NO":999,"REV_AT_EPOCH":8514,"BSTAR":0.00033979817,"MEAN_MOTION_DOT":3.981e-5,"MEAN_MOTION_DDOT":0}]
